[{"OBJECT_NAME":"STARLINK-2041","OBJECT_ID":"2021-012AP","EPOCH":"2026-03-09T22:00:01.999584","MEAN_MOTION":15.43872381,"ECCENTRICITY":0.00014725,"INCLINATION":53.1608,"RA_OF_ASC_NODE":63.4955,"ARG_OF_PERICENTER":92.1005,"MEAN_ANOMALY":286.7548,"EPHEMERIS_TYPE":0,"CLASSIFICATION_TYPE":"U","NORAD_CAT_ID":47657,"ELEMENT_SET_NO":999,"REV_AT_EPOCH":580,"BSTAR":0.0025069191,"MEAN_MOTION_DOT":0.00116913,"MEAN_MOTION_DDOT":0},{"OBJECT_NAME":"CONNECTA T1.2","OBJECT_ID":"2023-001D","EPOCH":"2026-03-09T17:19:18.981408","MEAN_MOTION":15.44466747,"ECCENTRICITY":0.00081044,"INCLINATION":97.3381,"RA_OF_ASC_NODE":138.0701,"ARG_OF_PERICENTER":103.5122,"MEAN_ANOMALY":256.703,"EPHEMERIS_TYPE":0,"CLASSIFICATION_TYPE":"U","NORAD_CAT_ID":55012,"ELEMENT_SET_NO":999,"REV_AT_EPOCH":17716,"BSTAR":0.00042958738,"MEAN_MOTION_DOT":0.00019849,"MEAN_MOTION_DDOT":0}]
